
# Worst residual: 194.64 km
# MJD 60701.000000 (2025 Jan 26  0:00)
A11cPAW = A11ddcq = A11dENI
1 79905U 24999ZYV 25026.49919926  .00000000  00000-0  00000-0 0 25681
2 79905 005.1565 350.1750 6212299 291.5890 014.5777 01.06601614    06

# Worst residual: 147.01 km
# MJD 60702.000000 (2025 Jan 27  0:00)
A11cPAW = A11ddcq = A11dENI
1 79905U 24999ZYV 25027.49919926  .00000000  00000-0  00000-0 0 25682
2 79905 005.0937 351.6347 6169191 290.9160 036.2831 01.06648543    05

# Worst residual: 146.69 km
# MJD 60703.000000 (2025 Jan 28  0:00)
A11cPAW = A11ddcq = A11dENI
1 79905U 24999ZYV 25028.49919926  .00000000  00000-0  00000-0 0 25683
2 79905 005.0488 353.2749 6126640 290.1098 057.9412 01.06655690    00

# Worst residual: 191.14 km
# MJD 60704.000000 (2025 Jan 29  0:00)
A11cPAW = A11ddcq = A11dENI
1 79905U 24999ZYV 25029.49919926  .00000000  00000-0  00000-0 0 25684
2 79905 004.9973 354.7464 6084519 289.4825 079.5559 01.06583501    07

# Worst residual: 222.67 km
# MJD 60705.000000 (2025 Jan 30  0:00)
A11cPAW = A11ddcq = A11dENI
1 79905U 24999ZYV 25030.49919926  .00000000  00000-0  00000-0 0 25686
2 79905 004.9573 356.2782 6042843 288.8314 101.1040 01.06502589    07

# Worst residual: 235.53 km
# MJD 60706.000000 (2025 Jan 31  0:00)
A11cPAW = A11ddcq = A11dENI
1 79905U 24999ZYV 25031.49919926  .00000000  00000-0  00000-0 0 25687
2 79905 004.9191 357.6169 5998725 288.3971 122.6005 01.06390697    03

# Worst residual: 218.68 km
# MJD 60707.000000 (2025 Feb  1  0:00)
A11cPAW = A11ddcq = A11dENI
1 79905U 24999ZYV 25032.49919926  .00000000  00000-0  00000-0 0 25688
2 79905 004.8886 359.3042 5949897 287.6612 144.0103 01.06290147    08

# Worst residual: 212.69 km
# MJD 60708.000000 (2025 Feb  2  0:00)
A11cPAW = A11ddcq = A11dENI
1 79905U 24999ZYV 25033.49919926  .00000000  00000-0  00000-0 0 25689
2 79905 004.8281 001.1414 5899422 286.7496 165.4521 01.06201435    03

# Worst residual: 148.25 km
# MJD 60709.000000 (2025 Feb  3  0:00)
A11cPAW = A11ddcq = A11dENI
1 79905U 24999ZYV 25034.49919926  .00000000  00000-0  00000-0 0 25680
2 79905 004.8002 002.3912 5839974 286.4108 186.8852 01.06080207    09

# Worst residual: 115.34 km
# MJD 60710.000000 (2025 Feb  4  0:00)
A11cPAW = A11ddcq = A11dENI
1 79905U 24999ZYV 25035.49919926  .00000000  00000-0  00000-0 0 25681
2 79905 004.7688 003.6655 5783886 285.9855 208.4252 01.05991309    07

# Worst residual: 86.95 km
# MJD 60711.000000 (2025 Feb  5  0:00)
A11cPAW = A11ddcq = A11dENI
1 79905U 24999ZYV 25036.49919926  .00000000  00000-0  00000-0 0 25682
2 79905 004.7378 005.0371 5739164 285.4728 229.9633 01.05988959    06

# Worst residual: 168.84 km
# MJD 60712.000000 (2025 Feb  6  0:00)
A11cPAW = A11ddcq = A11dENI
1 79905U 24999ZYV 25037.49919926  .00000000  00000-0  00000-0 0 25683
2 79905 004.7062 006.4071 5696303 285.0132 251.4328 01.06022138    00

# Worst residual: 215.00 km
# MJD 60713.000000 (2025 Feb  7  0:00)
A11cPAW = A11ddcq = A11dENI
1 79905U 24999ZYV 25038.49919926  .00000000  00000-0  00000-0 0 25684
2 79905 004.6745 007.7653 5653741 284.6009 272.8750 01.06091219    06

# Worst residual: 220.21 km
# MJD 60714.000000 (2025 Feb  8  0:00)
A11cPAW = A11ddcq = A11dENI
1 79905U 24999ZYV 25039.49919926  .00000000  00000-0  00000-0 0 25685
2 79905 004.6447 009.0519 5608681 284.2993 294.2883 01.06185129    01

# Worst residual: 197.10 km
# MJD 60715.000000 (2025 Feb  9  0:00)
A11cPAW = A11ddcq = A11dENI
1 79905U 24999ZYV 25040.49919926  .00000000  00000-0  00000-0 0 25687
2 79905 004.6098 010.3969 5561339 283.9637 315.7347 01.06296033    07

# Worst residual: 223.74 km
# MJD 60716.000000 (2025 Feb 10  0:00)
A11cPAW = A11ddcq = A11dENI
1 79905U 24999ZYV 25041.49919926  .00000000  00000-0  00000-0 0 25688
2 79905 004.5836 011.6295 5510382 283.7109 337.2093 01.06429863    02

# Worst residual: 208.89 km
# MJD 60717.000000 (2025 Feb 11  0:00)
A11cPAW = A11ddcq = A11dENI
1 79905U 24999ZYV 25042.49919926  .00000000  00000-0  00000-0 0 25689
2 79905 004.5652 012.5017 5460701 283.8320 358.7254 01.06540291    01

# Worst residual: 182.10 km
# MJD 60718.000000 (2025 Feb 12  0:00)
A11cPAW = A11ddcq = A11dENI
1 79905U 24999ZYV 25043.49919926  .00000000  00000-0  00000-0 0 25680
2 79905 004.5468 013.5860 5406929 283.7189 020.3002 01.06643480    04

# Worst residual: 138.70 km
# MJD 60719.000000 (2025 Feb 13  0:00)
A11cPAW = A11ddcq = A11dENI
1 79905U 24999ZYV 25044.49919926  .00000000  00000-0  00000-0 0 25681
2 79905 004.5283 014.5849 5357095 283.6856 041.9018 01.06683294    09

# Worst residual: 183.66 km
# MJD 60720.000000 (2025 Feb 14  0:00)
A11cPAW = A11ddcq = A11dENI
1 79905U 24999ZYV 25045.49919926  .00000000  00000-0  00000-0 0 25682
2 79905 004.5073 015.6031 5307580 283.6529 063.4875 01.06672170    03

# Worst residual: 224.60 km
# MJD 60721.000000 (2025 Feb 15  0:00)
A11cPAW = A11ddcq = A11dENI
1 79905U 24999ZYV 25046.49919926  .00000000  00000-0  00000-0 0 25683
2 79905 004.4912 016.5650 5260290 283.7283 084.9750 01.06595849    02
